start=new Date('2022-01-17T00:00:00.000Z').valueOf();
sats=[{"FILE":"3274671","SITE":"AFETR","EPHEMERIS_TYPE":"0","COUNTRY_CODE":"US","MEAN_ANOMALY":"283.8191","OBJECT_TYPE":"PAYLOAD","INCLINATION":"53.0545","TLE_LINE1":"1 48483U 21040BH  22016.38035858  .00002348  00000-0  17641-3 0  9994","ARG_OF_PERICENTER":"76.2997","ELEMENT_SET_NO":"999","TIME_SYSTEM":"UTC","PERIAPSIS":"545.946","CENTER_NAME":"EARTH","OBJECT_NAME":"STARLINK-2531","GP_ID":"193985903","CLASSIFICATION_TYPE":"U","SEMIMAJOR_AXIS":"6925.321","PERIOD":"95.592","MEAN_MOTION":"15.06408986","OBJECT_ID":"2021-040BH","BSTAR":"0.00017641000000","ECCENTRICITY":"0.00017900","REV_AT_EPOCH":"3825","NORAD_CAT_ID":"48483","EPOCH":"2022-01-16T09:07:42.981312","MEAN_MOTION_DOT":"0.00002348","MEAN_MOTION_DDOT":"0.0000000000000","DECAY_DATE":null,"APOAPSIS":"548.426","TLE_LINE2":"2 48483  53.0545 155.1239 0001790  76.2997 283.8191 15.06408986 38251","RCS_SIZE":"LARGE","LAUNCH_DATE":"2021-05-09","REF_FRAME":"TEME","MEAN_ELEMENT_THEORY":"SGP4","RA_OF_ASC_NODE":"155.1239"},{"RCS_SIZE":"LARGE","TLE_LINE2":"2 48484  53.0550 153.4332 0001762  97.1872 262.9317 15.06405961 39592","APOAPSIS":"548.416","DECAY_DATE":null,"MEAN_ELEMENT_THEORY":"SGP4","RA_OF_ASC_NODE":"153.4332","REF_FRAME":"TEME","LAUNCH_DATE":"2021-05-09","PERIOD":"95.592","SEMIMAJOR_AXIS":"6925.330","MEAN_MOTION":"15.06405961","BSTAR":"0.00002271500000","OBJECT_ID":"2021-040BJ","ECCENTRICITY":"0.00017620","CLASSIFICATION_TYPE":"U","OBJECT_NAME":"STARLINK-2696","GP_ID":"193994179","CENTER_NAME":"EARTH","MEAN_MOTION_DOT":"0.00000057","MEAN_MOTION_DDOT":"0.0000000000000","EPOCH":"2022-01-16T18:07:44.357664","NORAD_CAT_ID":"48484","REV_AT_EPOCH":"3959","ARG_OF_PERICENTER":"97.1872","PERIAPSIS":"545.975","TIME_SYSTEM":"UTC","ELEMENT_SET_NO":"999","COUNTRY_CODE":"US","MEAN_ANOMALY":"262.9317","OBJECT_TYPE":"PAYLOAD","FILE":"3274973","SITE":"AFETR","EPHEMERIS_TYPE":"0","TLE_LINE1":"1 48484U 21040BJ  22016.75537451  .00000057  00000-0  22715-4 0  9996","INCLINATION":"53.0550"},{"RCS_SIZE":"LARGE","TLE_LINE2":"2 48485  53.0542 153.3060 0001784  86.1964 273.9229 15.06407058 39598","APOAPSIS":"548.427","DECAY_DATE":null,"RA_OF_ASC_NODE":"153.3060","MEAN_ELEMENT_THEORY":"SGP4","REF_FRAME":"TEME","LAUNCH_DATE":"2021-05-09","BSTAR":"0.00018096000000","OBJECT_ID":"2021-040BK","ECCENTRICITY":"0.00017840","SEMIMAJOR_AXIS":"6925.327","PERIOD":"95.592","MEAN_MOTION":"15.06407058","CLASSIFICATION_TYPE":"U","GP_ID":"193994189","OBJECT_NAME":"STARLINK-2500","CENTER_NAME":"EARTH","MEAN_MOTION_DOT":"0.00002415","MEAN_MOTION_DDOT":"0.0000000000000","EPOCH":"2022-01-16T18:51:33.980544","REV_AT_EPOCH":"3959","NORAD_CAT_ID":"48485","ARG_OF_PERICENTER":"86.1964","TIME_SYSTEM":"UTC","PERIAPSIS":"545.956","ELEMENT_SET_NO":"999","MEAN_ANOMALY":"273.9229","OBJECT_TYPE":"PAYLOAD","COUNTRY_CODE":"US","SITE":"AFETR","FILE":"3274974","EPHEMERIS_TYPE":"0","TLE_LINE1":"1 48485U 21040BK  22016.78580996  .00002415  00000-0  18096-3 0  9998","INCLINATION":"53.0542"},{"APOAPSIS":"548.214","TLE_LINE2":"2 48486  53.0543 152.9879 0001447  81.4432 278.6721 15.06400603 39607","DECAY_DATE":null,"RCS_SIZE":"LARGE","REF_FRAME":"TEME","LAUNCH_DATE":"2021-05-09","MEAN_ELEMENT_THEORY":"SGP4","RA_OF_ASC_NODE":"152.9879","OBJECT_NAME":"STARLINK-2496","GP_ID":"193994205","CENTER_NAME":"EARTH","MEAN_MOTION":"15.06400603","PERIOD":"95.592","SEMIMAJOR_AXIS":"6925.347","ECCENTRICITY":"0.00014470","BSTAR":"-0.00008327000000","OBJECT_ID":"2021-040BL","CLASSIFICATION_TYPE":"U","REV_AT_EPOCH":"3960","NORAD_CAT_ID":"48486","MEAN_MOTION_DOT":"-0.00001522","MEAN_MOTION_DDOT":"0.0000000000000","EPOCH":"2022-01-16T20:32:24.521568","ARG_OF_PERICENTER":"81.4432","TIME_SYSTEM":"UTC","PERIAPSIS":"546.210","ELEMENT_SET_NO":"999","FILE":"3274977","SITE":"AFETR","EPHEMERIS_TYPE":"0","COUNTRY_CODE":"US","OBJECT_TYPE":"PAYLOAD","MEAN_ANOMALY":"278.6721","TLE_LINE1":"1 48486U 21040BL  22016.85583937 -.00001522  00000-0 -83270-4 0  9992","INCLINATION":"53.0543"},{"BSTAR":"0.00061477000000","OBJECT_ID":"2021-040BM","ECCENTRICITY":"0.00017030","PERIOD":"95.591","SEMIMAJOR_AXIS":"6925.287","MEAN_MOTION":"15.06420068","CLASSIFICATION_TYPE":"U","GP_ID":"193994213","OBJECT_NAME":"STARLINK-2494","CENTER_NAME":"EARTH","MEAN_MOTION_DDOT":"0.0000000000000","MEAN_MOTION_DOT":"0.00008892","EPOCH":"2022-01-16T20:37:44.871168","NORAD_CAT_ID":"48487","REV_AT_EPOCH":"3961","RCS_SIZE":"LARGE","TLE_LINE2":"2 48487  53.0550 152.9908 0001703  77.1385 282.9794 15.06420068 39619","APOAPSIS":"548.331","DECAY_DATE":null,"RA_OF_ASC_NODE":"152.9908","MEAN_ELEMENT_THEORY":"SGP4","REF_FRAME":"TEME","LAUNCH_DATE":"2021-05-09","MEAN_ANOMALY":"282.9794","OBJECT_TYPE":"PAYLOAD","COUNTRY_CODE":"US","SITE":"AFETR","FILE":"3274977","EPHEMERIS_TYPE":"0","TLE_LINE1":"1 48487U 21040BM  22016.85954712  .00008892  00000-0  61477-3 0  9995","INCLINATION":"53.0550","ARG_OF_PERICENTER":"77.1385","TIME_SYSTEM":"UTC","PERIAPSIS":"545.973","ELEMENT_SET_NO":"999"},{"INCLINATION":"53.0551","TLE_LINE1":"1 48553U 21041A   22016.50474325  .00002100  00000-0  15975-3 0  9997","FILE":"3274671","EPHEMERIS_TYPE":"0","SITE":"AFETR","MEAN_ANOMALY":"260.4254","OBJECT_TYPE":"PAYLOAD","COUNTRY_CODE":"US","ELEMENT_SET_NO":"999","TIME_SYSTEM":"UTC","PERIAPSIS":"546.274","ARG_OF_PERICENTER":"99.6877","NORAD_CAT_ID":"48553","REV_AT_EPOCH":"3713","EPOCH":"2022-01-16T12:06:49.816800","MEAN_MOTION_DDOT":"0.0000000000000","MEAN_MOTION_DOT":"0.00002100","CENTER_NAME":"EARTH","GP_ID":"193987913","OBJECT_NAME":"STARLINK-2063","CLASSIFICATION_TYPE":"U","BSTAR":"0.00015975000000","ECCENTRICITY":"0.00012600","OBJECT_ID":"2021-041A","PERIOD":"95.591","SEMIMAJOR_AXIS":"6925.282","MEAN_MOTION":"15.06421773","LAUNCH_DATE":"2021-05-15","REF_FRAME":"TEME","RA_OF_ASC_NODE":"84.5740","MEAN_ELEMENT_THEORY":"SGP4","DECAY_DATE":null,"TLE_LINE2":"2 48553  53.0551  84.5740 0001260  99.6877 260.4254 15.06421773 37132","APOAPSIS":"548.019","RCS_SIZE":"LARGE"},{"MEAN_ANOMALY":"255.0854","OBJECT_TYPE":"PAYLOAD","COUNTRY_CODE":"US","FILE":"3274671","SITE":"AFETR","EPHEMERIS_TYPE":"0","INCLINATION":"53.0547","TLE_LINE1":"1 48554U 21041B   22016.44577717  .00004458  00000-0  31784-3 0  9994","ARG_OF_PERICENTER":"105.0288","ELEMENT_SET_NO":"999","PERIAPSIS":"546.218","TIME_SYSTEM":"UTC","CLASSIFICATION_TYPE":"U","BSTAR":"0.00031784000000","OBJECT_ID":"2021-041B","ECCENTRICITY":"0.00013740","PERIOD":"95.591","MEAN_MOTION":"15.06414410","SEMIMAJOR_AXIS":"6925.304","CENTER_NAME":"EARTH","GP_ID":"193986164","OBJECT_NAME":"STARLINK-2139","EPOCH":"2022-01-16T10:41:55.147488","MEAN_MOTION_DOT":"0.00004458","MEAN_MOTION_DDOT":"0.0000000000000","REV_AT_EPOCH":"3712","NORAD_CAT_ID":"48554","RCS_SIZE":"LARGE","DECAY_DATE":null,"TLE_LINE2":"2 48554  53.0547  84.8398 0001374 105.0288 255.0854 15.06414410 37129","APOAPSIS":"548.121","RA_OF_ASC_NODE":"84.8398","MEAN_ELEMENT_THEORY":"SGP4","LAUNCH_DATE":"2021-05-15","REF_FRAME":"TEME"},{"RCS_SIZE":"LARGE","DECAY_DATE":null,"TLE_LINE2":"2 48555  53.0563  94.7131 0001399 100.3107 259.8040 15.06408768 36989","APOAPSIS":"548.156","RA_OF_ASC_NODE":"94.7131","MEAN_ELEMENT_THEORY":"SGP4","LAUNCH_DATE":"2021-05-15","REF_FRAME":"TEME","CLASSIFICATION_TYPE":"U","BSTAR":"0.00016266000000","OBJECT_ID":"2021-041C","ECCENTRICITY":"0.00013990","PERIOD":"95.592","SEMIMAJOR_AXIS":"6925.322","MEAN_MOTION":"15.06408768","CENTER_NAME":"EARTH","GP_ID":"193986414","OBJECT_NAME":"STARLINK-2145","EPOCH":"2022-01-16T11:23:03.095232","MEAN_MOTION_DOT":"0.00002143","MEAN_MOTION_DDOT":"0.0000000000000","NORAD_CAT_ID":"48555","REV_AT_EPOCH":"3698","ARG_OF_PERICENTER":"100.3107","ELEMENT_SET_NO":"999","PERIAPSIS":"546.218","TIME_SYSTEM":"UTC","OBJECT_TYPE":"PAYLOAD","MEAN_ANOMALY":"259.8040","COUNTRY_CODE":"US","FILE":"3274671","EPHEMERIS_TYPE":"0","SITE":"AFETR","INCLINATION":"53.0563","TLE_LINE1":"1 48555U 21041C   22016.47434138  .00002143  00000-0  16266-3 0  9994"},{"RCS_SIZE":"LARGE","DECAY_DATE":null,"APOAPSIS":"548.130","TLE_LINE2":"2 48556  53.0566  94.4603 0001378  84.2507 275.8640 15.06412450 36993","MEAN_ELEMENT_THEORY":"SGP4","RA_OF_ASC_NODE":"94.4603","LAUNCH_DATE":"2021-05-15","REF_FRAME":"TEME","CLASSIFICATION_TYPE":"U","PERIOD":"95.591","SEMIMAJOR_AXIS":"6925.310","MEAN_MOTION":"15.06412450","ECCENTRICITY":"0.00013780","BSTAR":"0.00027536000000","OBJECT_ID":"2021-041D","CENTER_NAME":"EARTH","OBJECT_NAME":"STARLINK-2151","GP_ID":"193987665","EPOCH":"2022-01-16T12:42:40.165920","MEAN_MOTION_DOT":"0.00003824","MEAN_MOTION_DDOT":"0.0000000000000","REV_AT_EPOCH":"3699","NORAD_CAT_ID":"48556","ARG_OF_PERICENTER":"84.2507","ELEMENT_SET_NO":"999","PERIAPSIS":"546.221","TIME_SYSTEM":"UTC","COUNTRY_CODE":"US","OBJECT_TYPE":"PAYLOAD","MEAN_ANOMALY":"275.8640","SITE":"AFETR","FILE":"3274671","EPHEMERIS_TYPE":"0","INCLINATION":"53.0566","TLE_LINE1":"1 48556U 21041D   22016.52963155  .00003824  00000-0  27536-3 0  9996"},{"GP_ID":"193993243","OBJECT_NAME":"STARLINK-2155","CENTER_NAME":"EARTH","BSTAR":"0.00009000800000","OBJECT_ID":"2021-041E","ECCENTRICITY":"0.00013960","MEAN_MOTION":"15.06410404","PERIOD":"95.591","SEMIMAJOR_AXIS":"6925.317","CLASSIFICATION_TYPE":"U","NORAD_CAT_ID":"48557","REV_AT_EPOCH":"3763","MEAN_MOTION_DDOT":"0.0000000000000","MEAN_MOTION_DOT":"0.00001060","EPOCH":"2022-01-16T20:47:00.028320","APOAPSIS":"548.148","TLE_LINE2":"2 48557  53.0544  82.9571 0001396  84.3595 275.7553 15.06410404 37635","DECAY_DATE":null,"RCS_SIZE":"LARGE","REF_FRAME":"TEME","LAUNCH_DATE":"2021-05-15","RA_OF_ASC_NODE":"82.9571","MEAN_ELEMENT_THEORY":"SGP4","EPHEMERIS_TYPE":"0","FILE":"3274927","SITE":"AFETR","OBJECT_TYPE":"PAYLOAD","MEAN_ANOMALY":"275.7553","COUNTRY_CODE":"US","TLE_LINE1":"1 48557U 21041E   22016.86597255  .00001060  00000-0  90008-4 0  9993","INCLINATION":"53.0544","ARG_OF_PERICENTER":"84.3595","PERIAPSIS":"546.215","TIME_SYSTEM":"UTC","ELEMENT_SET_NO":"999"}];
